CCSDS_OMM_VERS = 2.0
CREATION_DATE  = 
ORIGINATOR     = 

OBJECT_NAME    = STARLINK-36811
OBJECT_ID      = 2026-032M
CENTER_NAME    = EARTH
REF_FRAME      = TEME
TIME_SYSTEM    = UTC
MEAN_ELEMENT_THEORY = SGP/SGP4

EPOCH          = 2026-03-15T06:03:10.489536
MEAN_MOTION    = 15.75209650
ECCENTRICITY   = .00021674
INCLINATION    = 97.2840
RA_OF_ASC_NODE = 261.0835
ARG_OF_PERICENTER = 79.2141
MEAN_ANOMALY   = 280.9368

EPHEMERIS_TYPE = 0
CLASSIFICATION_TYPE = U
NORAD_CAT_ID   = 67808
ELEMENT_SET_NO = 999
REV_AT_EPOCH   = 566
BSTAR          = .16019965E-2
MEAN_MOTION_DOT = .246046E-2
MEAN_MOTION_DDOT = 0

CCSDS_OMM_VERS = 2.0
CREATION_DATE  = 
ORIGINATOR     = 

OBJECT_NAME    = STARLINK-36795
OBJECT_ID      = 2026-032N
CENTER_NAME    = EARTH
REF_FRAME      = TEME
TIME_SYSTEM    = UTC
MEAN_ELEMENT_THEORY = SGP/SGP4

EPOCH          = 2026-03-15T06:27:34.089120
MEAN_MOTION    = 15.75175475
ECCENTRICITY   = .00017964
INCLINATION    = 97.2835
RA_OF_ASC_NODE = 261.0593
ARG_OF_PERICENTER = 84.8391
MEAN_ANOMALY   = 275.3079

EPHEMERIS_TYPE = 0
CLASSIFICATION_TYPE = U
NORAD_CAT_ID   = 67809
ELEMENT_SET_NO = 999
REV_AT_EPOCH   = 566
BSTAR          = .20299782E-2
MEAN_MOTION_DOT = .313857E-2
MEAN_MOTION_DDOT = 0

CCSDS_OMM_VERS = 2.0
CREATION_DATE  = 
ORIGINATOR     = 

OBJECT_NAME    = STARLINK-36807
OBJECT_ID      = 2026-032P
CENTER_NAME    = EARTH
REF_FRAME      = TEME
TIME_SYSTEM    = UTC
MEAN_ELEMENT_THEORY = SGP/SGP4

EPOCH          = 2026-03-15T06:04:41.903328
MEAN_MOTION    = 15.75203880
ECCENTRICITY   = .00015181
INCLINATION    = 97.2844
RA_OF_ASC_NODE = 261.0809
ARG_OF_PERICENTER = 79.1533
MEAN_ANOMALY   = 280.9903

EPHEMERIS_TYPE = 0
CLASSIFICATION_TYPE = U
NORAD_CAT_ID   = 67810
ELEMENT_SET_NO = 999
REV_AT_EPOCH   = 566
BSTAR          = .16630362E-2
MEAN_MOTION_DOT = .255647E-2
MEAN_MOTION_DDOT = 0

CCSDS_OMM_VERS = 2.0
CREATION_DATE  = 
ORIGINATOR     = 

OBJECT_NAME    = STARLINK-36733
OBJECT_ID      = 2026-032Q
CENTER_NAME    = EARTH
REF_FRAME      = TEME
TIME_SYSTEM    = UTC
MEAN_ELEMENT_THEORY = SGP/SGP4

EPOCH          = 2026-03-15T05:50:58.730784
MEAN_MOTION    = 15.75161602
ECCENTRICITY   = .00018526
INCLINATION    = 97.2835
RA_OF_ASC_NODE = 261.0931
ARG_OF_PERICENTER = 78.5471
MEAN_ANOMALY   = 281.6002

EPHEMERIS_TYPE = 0
CLASSIFICATION_TYPE = U
NORAD_CAT_ID   = 67811
ELEMENT_SET_NO = 999
REV_AT_EPOCH   = 566
BSTAR          = .22976559E-2
MEAN_MOTION_DOT = .356862E-2
MEAN_MOTION_DDOT = 0

CCSDS_OMM_VERS = 2.0
CREATION_DATE  = 
ORIGINATOR     = 

OBJECT_NAME    = STARLINK-36377
OBJECT_ID      = 2026-032R
CENTER_NAME    = EARTH
REF_FRAME      = TEME
TIME_SYSTEM    = UTC
MEAN_ELEMENT_THEORY = SGP/SGP4

EPOCH          = 2026-03-15T05:47:25.069632
MEAN_MOTION    = 15.75202629
ECCENTRICITY   = .00013616
INCLINATION    = 97.2839
RA_OF_ASC_NODE = 261.0976
ARG_OF_PERICENTER = 66.9060
MEAN_ANOMALY   = 293.2348

EPHEMERIS_TYPE = 0
CLASSIFICATION_TYPE = U
NORAD_CAT_ID   = 67812
ELEMENT_SET_NO = 999
REV_AT_EPOCH   = 566
BSTAR          = .13783459E-2
MEAN_MOTION_DOT = .210728E-2
MEAN_MOTION_DDOT = 0

CCSDS_OMM_VERS = 2.0
CREATION_DATE  = 
ORIGINATOR     = 

OBJECT_NAME    = STARLINK-36732
OBJECT_ID      = 2026-032S
CENTER_NAME    = EARTH
REF_FRAME      = TEME
TIME_SYSTEM    = UTC
MEAN_ELEMENT_THEORY = SGP/SGP4

EPOCH          = 2026-03-15T02:51:34.192800
MEAN_MOTION    = 15.75143660
ECCENTRICITY   = .00020108
INCLINATION    = 97.2840
RA_OF_ASC_NODE = 260.9559
ARG_OF_PERICENTER = 101.7561
MEAN_ANOMALY   = 258.3930

EPHEMERIS_TYPE = 0
CLASSIFICATION_TYPE = U
NORAD_CAT_ID   = 67813
ELEMENT_SET_NO = 999
REV_AT_EPOCH   = 564
BSTAR          = .19371067E-2
MEAN_MOTION_DOT = .29854E-2
MEAN_MOTION_DDOT = 0

CCSDS_OMM_VERS = 2.0
CREATION_DATE  = 
ORIGINATOR     = 

OBJECT_NAME    = STARLINK-36767
OBJECT_ID      = 2026-032T
CENTER_NAME    = EARTH
REF_FRAME      = TEME
TIME_SYSTEM    = UTC
MEAN_ELEMENT_THEORY = SGP/SGP4

EPOCH          = 2026-03-15T06:22:59.261088
MEAN_MOTION    = 15.75203780
ECCENTRICITY   = .00012549
INCLINATION    = 97.2835
RA_OF_ASC_NODE = 261.0622
ARG_OF_PERICENTER = 100.2546
MEAN_ANOMALY   = 259.8861

EPHEMERIS_TYPE = 0
CLASSIFICATION_TYPE = U
NORAD_CAT_ID   = 67814
ELEMENT_SET_NO = 999
REV_AT_EPOCH   = 566
BSTAR          = .14182564E-2
MEAN_MOTION_DOT = .217005E-2
MEAN_MOTION_DDOT = 0

CCSDS_OMM_VERS = 2.0
CREATION_DATE  = 
ORIGINATOR     = 

OBJECT_NAME    = STARLINK-36797
OBJECT_ID      = 2026-032U
CENTER_NAME    = EARTH
REF_FRAME      = TEME
TIME_SYSTEM    = UTC
MEAN_ELEMENT_THEORY = SGP/SGP4

EPOCH          = 2026-03-15T06:10:17.046336
MEAN_MOTION    = 15.75220575
ECCENTRICITY   = .00018598
INCLINATION    = 97.2842
RA_OF_ASC_NODE = 261.0757
ARG_OF_PERICENTER = 81.8250
MEAN_ANOMALY   = 278.3226

EPHEMERIS_TYPE = 0
CLASSIFICATION_TYPE = U
NORAD_CAT_ID   = 67815
ELEMENT_SET_NO = 999
REV_AT_EPOCH   = 566
BSTAR          = .15812193E-2
MEAN_MOTION_DOT = .242874E-2
MEAN_MOTION_DDOT = 0

CCSDS_OMM_VERS = 2.0
CREATION_DATE  = 
ORIGINATOR     = 

OBJECT_NAME    = STARLINK-36343
OBJECT_ID      = 2026-032V
CENTER_NAME    = EARTH
REF_FRAME      = TEME
TIME_SYSTEM    = UTC
MEAN_ELEMENT_THEORY = SGP/SGP4

EPOCH          = 2026-03-15T04:10:20.622720
MEAN_MOTION    = 15.75215874
ECCENTRICITY   = .00017039
INCLINATION    = 97.2834
RA_OF_ASC_NODE = 261.0344
ARG_OF_PERICENTER = 72.2271
MEAN_ANOMALY   = 287.9180

EPHEMERIS_TYPE = 0
CLASSIFICATION_TYPE = U
NORAD_CAT_ID   = 67816
ELEMENT_SET_NO = 999
REV_AT_EPOCH   = 565
BSTAR          = .1191624E-2
MEAN_MOTION_DOT = .181645E-2
MEAN_MOTION_DDOT = 0

CCSDS_OMM_VERS = 2.0
CREATION_DATE  = 
ORIGINATOR     = 

OBJECT_NAME    = STARLINK-36756
OBJECT_ID      = 2026-032W
CENTER_NAME    = EARTH
REF_FRAME      = TEME
TIME_SYSTEM    = UTC
MEAN_ELEMENT_THEORY = SGP/SGP4

EPOCH          = 2026-03-15T01:23:08.002464
MEAN_MOTION    = 15.75129281
ECCENTRICITY   = .00013679
INCLINATION    = 97.2837
RA_OF_ASC_NODE = 260.8857
ARG_OF_PERICENTER = 64.1287
MEAN_ANOMALY   = 296.0119

EPHEMERIS_TYPE = 0
CLASSIFICATION_TYPE = U
NORAD_CAT_ID   = 67817
ELEMENT_SET_NO = 999
REV_AT_EPOCH   = 562
BSTAR          = .17763662E-2
MEAN_MOTION_DOT = .272751E-2
MEAN_MOTION_DDOT = 0

CCSDS_OMM_VERS = 2.0
CREATION_DATE  = 
ORIGINATOR     = 

OBJECT_NAME    = STARLINK-36346
OBJECT_ID      = 2026-032X
CENTER_NAME    = EARTH
REF_FRAME      = TEME
TIME_SYSTEM    = UTC
MEAN_ELEMENT_THEORY = SGP/SGP4

EPOCH          = 2026-03-15T02:32:46.230432
MEAN_MOTION    = 15.75145599
ECCENTRICITY   = .00024342
INCLINATION    = 97.2836
RA_OF_ASC_NODE = 260.9744
ARG_OF_PERICENTER = 53.2912
MEAN_ANOMALY   = 306.8577

EPHEMERIS_TYPE = 0
CLASSIFICATION_TYPE = U
NORAD_CAT_ID   = 67818
ELEMENT_SET_NO = 999
REV_AT_EPOCH   = 564
BSTAR          = .15955381E-2
MEAN_MOTION_DOT = .244331E-2
MEAN_MOTION_DDOT = 0

CCSDS_OMM_VERS = 2.0
CREATION_DATE  = 
ORIGINATOR     = 

OBJECT_NAME    = STARLINK-36788
OBJECT_ID      = 2026-032Y
CENTER_NAME    = EARTH
REF_FRAME      = TEME
TIME_SYSTEM    = UTC
MEAN_ELEMENT_THEORY = SGP/SGP4

EPOCH          = 2026-03-15T06:13:20.058816
MEAN_MOTION    = 15.75218376
ECCENTRICITY   = .00014642
INCLINATION    = 97.2841
RA_OF_ASC_NODE = 261.0719
ARG_OF_PERICENTER = 79.5354
MEAN_ANOMALY   = 280.6076

EPHEMERIS_TYPE = 0
CLASSIFICATION_TYPE = U
NORAD_CAT_ID   = 67819
ELEMENT_SET_NO = 999
REV_AT_EPOCH   = 566
BSTAR          = .13405212E-2
MEAN_MOTION_DOT = .204941E-2
MEAN_MOTION_DDOT = 0

