STARLINK-36811          
1 67808U 26032M   26074.25220474  .00246046  00000+0  16020-2 0  9999
2 67808  97.2840 261.0835 0002167  79.2141 280.9368 15.75209650  5669
STARLINK-36795          
1 67809U 26032N   26074.26914455  .00313857  00000+0  20300-2 0  9991
2 67809  97.2835 261.0593 0001796  84.8391 275.3079 15.75175475  5665
STARLINK-36807          
1 67810U 26032P   26074.25326277  .00255647  00000+0  16630-2 0  9994
2 67810  97.2844 261.0809 0001518  79.1533 280.9903 15.75203880  5664
STARLINK-36733          
1 67811U 26032Q   26074.24373531  .00356862  00000+0  22977-2 0  9991
2 67811  97.2835 261.0931 0001852  78.5471 281.6002 15.75161602  5669
STARLINK-36377          
1 67812U 26032R   26074.24126238  .00210728  00000+0  13783-2 0  9997
2 67812  97.2839 261.0976 0001361  66.9060 293.2348 15.75202629  5660
STARLINK-36732          
1 67813U 26032S   26074.11914575  .00298540  00000+0  19371-2 0  9990
2 67813  97.2840 260.9559 0002010 101.7561 258.3930 15.75143660  5640
STARLINK-36767          
1 67814U 26032T   26074.26596367  .00217005  00000+0  14183-2 0  9995
2 67814  97.2835 261.0622 0001254 100.2546 259.8861 15.75203780  5665
STARLINK-36797          
1 67815U 26032U   26074.25714174  .00242874  00000+0  15812-2 0  9995
2 67815  97.2842 261.0757 0001859  81.8250 278.3226 15.75220575  5662
STARLINK-36343          
1 67816U 26032V   26074.17384980  .00181645  00000+0  11916-2 0  9994
2 67816  97.2834 261.0344 0001703  72.2271 287.9180 15.75215874  5651
STARLINK-36756          
1 67817U 26032W   26074.05773151  .00272751  00000+0  17764-2 0  9990
2 67817  97.2837 260.8857 0001367  64.1287 296.0119 15.75129281  5620
STARLINK-36346          
1 67818U 26032X   26074.10609063  .00244331  00000+0  15955-2 0  9990
2 67818  97.2836 260.9744 0002434  53.2912 306.8577 15.75145599  5646
STARLINK-36788          
1 67819U 26032Y   26074.25925994  .00204941  00000+0  13405-2 0  9992
2 67819  97.2841 261.0719 0001464  79.5354 280.6076 15.75218376  5669
